KUIPER-00268            
1 67790U 26030AC  26063.48638046  .00047175  00000+0  13374-2 0  9999
2 67790  51.8845 244.2022 0002379  32.6347 327.4786 15.35775633  4291
KUIPER-00270            
1 67791U 26030AD  26063.50449203  .00043836  00000+0  12970-2 0  9999
2 67791  51.8804 244.3100 0010048  41.7747 318.4004 15.34423846  4290
KUIPER-00274            
1 67792U 26030AE  26063.52877424  .00060340  00000+0  19435-2 0  9994
2 67792  51.8811 244.4708 0017510  54.2993 305.9617 15.31481272  4292
KUIPER-00275            
1 67793U 26030AF  26063.43679365  .00032377  00000+0  96081-3 0  9991
2 67793  51.8837 244.6154 0008809  38.9482 321.2136 15.34485046  4283
KUIPER-00276            
1 67794U 26030AG  26063.53275950  .00028006  00000+0  91399-3 0  9996
2 67794  51.8810 244.4935 0018697  52.2969 307.9707 15.31402221  4292
KUIPER-00279            
1 67795U 26030AH  26063.49554832  .00050676  00000+0  14621-2 0  9991
2 67795  51.8799 244.2509 0006308  33.6293 326.5092 15.35178766  4295
