[{"OBJECT_NAME":"KUIPER-00268","OBJECT_ID":"2026-030AC","EPOCH":"2026-03-04T11:40:23.271744","MEAN_MOTION":15.35775633,"ECCENTRICITY":0.0002379,"INCLINATION":51.8845,"RA_OF_ASC_NODE":244.2022,"ARG_OF_PERICENTER":32.6347,"MEAN_ANOMALY":327.4786,"EPHEMERIS_TYPE":0,"CLASSIFICATION_TYPE":"U","NORAD_CAT_ID":67790,"ELEMENT_SET_NO":999,"REV_AT_EPOCH":429,"BSTAR":0.0013374,"MEAN_MOTION_DOT":0.00047175,"MEAN_MOTION_DDOT":0},{"OBJECT_NAME":"KUIPER-00270","OBJECT_ID":"2026-030AD","EPOCH":"2026-03-04T12:06:28.111392","MEAN_MOTION":15.34423846,"ECCENTRICITY":0.0010048,"INCLINATION":51.8804,"RA_OF_ASC_NODE":244.31,"ARG_OF_PERICENTER":41.7747,"MEAN_ANOMALY":318.4004,"EPHEMERIS_TYPE":0,"CLASSIFICATION_TYPE":"U","NORAD_CAT_ID":67791,"ELEMENT_SET_NO":999,"REV_AT_EPOCH":429,"BSTAR":0.001297,"MEAN_MOTION_DOT":0.00043836,"MEAN_MOTION_DDOT":0},{"OBJECT_NAME":"KUIPER-00274","OBJECT_ID":"2026-030AE","EPOCH":"2026-03-04T12:41:26.094336","MEAN_MOTION":15.31481272,"ECCENTRICITY":0.001751,"INCLINATION":51.8811,"RA_OF_ASC_NODE":244.4708,"ARG_OF_PERICENTER":54.2993,"MEAN_ANOMALY":305.9617,"EPHEMERIS_TYPE":0,"CLASSIFICATION_TYPE":"U","NORAD_CAT_ID":67792,"ELEMENT_SET_NO":999,"REV_AT_EPOCH":429,"BSTAR":0.0019435,"MEAN_MOTION_DOT":0.0006034,"MEAN_MOTION_DDOT":0},{"OBJECT_NAME":"KUIPER-00275","OBJECT_ID":"2026-030AF","EPOCH":"2026-03-04T10:28:58.971360","MEAN_MOTION":15.34485046,"ECCENTRICITY":0.0008809,"INCLINATION":51.8837,"RA_OF_ASC_NODE":244.6154,"ARG_OF_PERICENTER":38.9482,"MEAN_ANOMALY":321.2136,"EPHEMERIS_TYPE":0,"CLASSIFICATION_TYPE":"U","NORAD_CAT_ID":67793,"ELEMENT_SET_NO":999,"REV_AT_EPOCH":428,"BSTAR":0.00096081,"MEAN_MOTION_DOT":0.00032377,"MEAN_MOTION_DDOT":0},{"OBJECT_NAME":"KUIPER-00276","OBJECT_ID":"2026-030AG","EPOCH":"2026-03-04T12:47:10.420800","MEAN_MOTION":15.31402221,"ECCENTRICITY":0.0018697,"INCLINATION":51.881,"RA_OF_ASC_NODE":244.4935,"ARG_OF_PERICENTER":52.2969,"MEAN_ANOMALY":307.9707,"EPHEMERIS_TYPE":0,"CLASSIFICATION_TYPE":"U","NORAD_CAT_ID":67794,"ELEMENT_SET_NO":999,"REV_AT_EPOCH":429,"BSTAR":0.00091399,"MEAN_MOTION_DOT":0.00028006,"MEAN_MOTION_DDOT":0},{"OBJECT_NAME":"KUIPER-00279","OBJECT_ID":"2026-030AH","EPOCH":"2026-03-04T11:53:35.374848","MEAN_MOTION":15.35178766,"ECCENTRICITY":0.0006308,"INCLINATION":51.8799,"RA_OF_ASC_NODE":244.2509,"ARG_OF_PERICENTER":33.6293,"MEAN_ANOMALY":326.5092,"EPHEMERIS_TYPE":0,"CLASSIFICATION_TYPE":"U","NORAD_CAT_ID":67795,"ELEMENT_SET_NO":999,"REV_AT_EPOCH":429,"BSTAR":0.0014621,"MEAN_MOTION_DOT":0.00050676,"MEAN_MOTION_DDOT":0}]
